STARLINK-5263           
1 54193U 22141AN  24278.42234244  .00004327  00000+0  28963-3 0  9996
2 54193  53.2156 174.2233 0001055  77.5427 282.5683 15.08856958107536
STARLINK-5271           
1 54194U 22141AP  24278.41497486 -.00000256  00000+0  19939-5 0  9998
2 54194  53.2161 174.1771 0001193  85.3376 274.7753 15.08848667107531
STARLINK-5258           
1 54195U 22141AQ  24278.42599778  .00004593  00000+0  30620-3 0  9992
2 54195  53.2156 174.2451 0002291  69.8502 290.2736 15.08878011107530
STARLINK-5237           
1 54196U 22141AR  24278.40761419  .00007592  00000+0  49448-3 0  9994
2 54196  53.2163 174.1310 0001337  92.7309 267.3836 15.08845179107537
STARLINK-5246           
1 54198U 22141AT  24278.13897010  .00002379  00000+0  16749-3 0  9999
2 54198  53.2165 175.2938 0001387  94.1716 265.9435 15.08840193107497
STARLINK-5244           
1 54199U 22141AU  24278.41129523  .00002146  00000+0  15283-3 0  9992
2 54199  53.2149 174.1509 0001200  78.4709 281.6417 15.08848142107535
STARLINK-5250           
1 54200U 22141AV  24278.13159174 -.00000041  00000+0  15531-4 0  9999
2 54200  53.2155 175.2498 0001332  98.5318 261.5826 15.08854986107498
STARLINK-5199           
1 54201U 22141AW  24278.41866518  .00007060  00000+0  46112-3 0  9993
2 54201  53.2148 174.1936 0001210  72.5274 287.5850 15.08846782107539
STARLINK-5205           
1 54202U 22141AX  24277.99175000  .00002039  00000+0  14618-3 0  9992
2 54202  53.2163 175.7999 0001422  89.0255 271.0900 15.08839535107475
STARLINK-5247           
1 54203U 22141AY  24278.13527258  .00010780  00000+0  69386-3 0  9990
2 54203  53.2166 175.2710 0001640 103.5206 256.5969 15.08866806107491
STARLINK-5241           
1 54204U 22141AZ  24278.44436873  .00001576  00000+0  11707-3 0  9994
2 54204  53.2151 173.6448 0001993 109.9395 250.1812 15.08846769107545
STARLINK-5249           
1 54205U 22141BA  24277.98805803 -.00000414  00000+0 -79020-5 0  9992
2 54205  53.2158 175.7767 0001379  88.9149 271.2001 15.08855281107476
STARLINK-5264           
1 54206U 22141BB  24277.86803210 -.00000253  00000+0  21920-5 0  9996
2 54206  53.2150 141.5033 0002211  95.8803 264.2441 15.08836024107942
STARLINK-5262           
1 54207U 22141BC  24278.44805685  .00007386  00000+0  48144-3 0  9998
2 54207  53.2149 173.6738 0001446  85.0393 275.0764 15.08857523107544
STARLINK-5255           
1 54208U 22141BD  24278.35288357  .00001792  00000+0  13058-3 0  9991
2 54208  53.2156 149.5397 0001139  82.1900 277.9222 15.08851670107870
STARLINK-5259           
1 54209U 22141BE  24278.38642423  .00001196  00000+0  93189-4 0  9995
2 54209  53.2144 164.0019 0001273  78.2392 281.8742 15.08844515107670
STARLINK-5464           
1 54758U 22175A   24277.56630303  .00001225  00000+0  95042-4 0  9997
2 54758  53.2171 223.2190 0001485  93.2338 266.8824 15.08845601 97724
STARLINK-5215           
1 54759U 22175B   24277.23878777  .00000855  00000+0  71782-4 0  9994
2 54759  53.2157 224.7166 0001226  86.1913 273.9219 15.08843255101110
STARLINK-5220           
1 54760U 22175C   24278.29631675  .00002326  00000+0  16416-3 0  9994
2 54760  53.2183 224.9389 0001606 111.9269 248.1894 15.08851852 99046
STARLINK-5202           
1 54761U 22175D   24278.30000109  .00002717  00000+0  18867-3 0  9995
2 54761  53.2164 224.9580 0001261 109.2418 250.8711 15.08854793 99047
STARLINK-5214           
1 54762U 22175E   24278.15278964  .00005485  00000+0  36232-3 0  9996
2 54762  53.2165 225.4691 0001223  98.3688 261.7442 15.08852586 99021
STARLINK-5191           
1 54763U 22175F   24278.22640721  .00000718  00000+0  63199-4 0  9996
2 54763  53.2161 225.2113 0001329 105.7917 254.3221 15.08831693 99030
STARLINK-5458           
1 54764U 22175G   24278.13900677  .00007649  00000+0  49793-3 0  9999
2 54764  53.2160 225.3758 0001363 105.1998 254.9145 15.08856802 99026
STARLINK-5466           
1 54765U 22175H   24278.28895871  .00001085  00000+0  86236-4 0  9997
2 54765  53.2177 224.8928 0001424  94.5786 265.5369 15.08840418 99057
STARLINK-5471           
1 54766U 22175J   24278.54286351  .00011968  00000+0  76849-3 0  9993
2 54766  53.2174 223.6346 0001360 106.3059 253.8082 15.08853992 99086
STARLINK-5472           
1 54767U 22175K   24278.14173494  .00001543  00000+0  11500-3 0  9994
2 54767  53.2173 225.3886 0001447 108.7718 251.3431 15.08841575 99027
STARLINK-5444           
1 54768U 22175L   24278.51028355  .00003040  00000+0  20899-3 0  9996
2 54768  53.2156 209.1692 0001403  86.4545 273.6608 15.08845956 99284
STARLINK-5404           
1 54769U 22175M   24278.54654068  .00001487  00000+0  11144-3 0  9992
2 54769  53.2184 223.6591 0001292  91.9355 268.1786 15.08848751 99081
STARLINK-5448           
1 54770U 22175N   24278.22594711  .00000922  00000+0  76004-4 0  9997
2 54770  53.2170 210.2377 0001602  96.4769 263.6406 15.08841116 99241
STARLINK-5451           
1 54771U 22175P   24278.25808882  .00002582  00000+0  18017-3 0  9991
2 54771  53.2162 219.7151 0001325  94.3462 265.7682 15.08854427 99110
STARLINK-5452           
1 54772U 22175Q   24278.22225528  .00003295  00000+0  22497-3 0  9998
2 54772  53.2152 210.2157 0001792 112.2951 247.8231 15.08847239 99241
STARLINK-5453           
1 54773U 22175R   24278.13436609  .00007593  00000+0  49445-3 0  9990
2 54773  53.2166 225.3443 0001439 105.2069 254.9082 15.08854456 99020
STARLINK-5454           
1 54774U 22175S   24278.50924914 -.00000754  00000+0 -29265-4 0  9996
2 54774  53.2165 208.4687 0001303  92.4417 267.6725 15.08836007 99292
STARLINK-5465           
1 54775U 22175T   24277.13708023  .00003090  00000+0  21211-3 0  9992
2 54775  53.2152 229.7826 0001259  99.2699 260.8435 15.08842239101030
STARLINK-5470           
1 54776U 22175U   24278.17482416  .00000054  00000+0  21501-4 0  9993
2 54776  53.2162 224.8949 0001639  89.6098 270.5082 15.08834952 99037
STARLINK-5468           
1 54777U 22175V   24278.25947854  .00004062  00000+0  27304-3 0  9994
2 54777  53.2165 224.7026 0001576  97.1392 262.9779 15.08858494 99043
STARLINK-5450           
1 54778U 22175W   24278.21488723  .00000900  00000+0  74609-4 0  9994
2 54778  53.2164 210.1748 0001309  88.7397 271.3745 15.08845390 99248
STARLINK-5447           
1 54779U 22175X   24278.21857233  .00003047  00000+0  20938-3 0  9991
2 54779  53.2161 210.1927 0001507 107.4597 252.6560 15.08853725 99244
STARLINK-5449           
1 54780U 22175Y   24277.53774795  .00001923  00000+0  13885-3 0  9992
2 54780  53.2171 213.0545 0001509  93.6484 266.4680 15.08848963 99141
STARLINK-5443           
1 54781U 22175Z   24278.54238722  .00002659  00000+0  18494-3 0  9998
2 54781  53.2162 208.6612 0001087  99.6271 260.4844 15.08865727 99297
STARLINK-5437           
1 54782U 22175AA  24278.58334491  .00226715  00000+0  20946-2 0  9998
2 54782  53.2108  97.4032 0002964 212.8124 259.6936 15.66336185100873
STARLINK-5439           
1 54783U 22175AB  24278.14127881  .00001325  00000+0  10131-3 0  9998
2 54783  53.2175 210.4257 0001245  72.8843 287.2285 15.08850265 99234
STARLINK-5442           
1 54784U 22175AC  24278.12331899  .00003813  00000+0  25750-3 0  9990
2 54784  53.2162 225.2772 0001445  95.7242 264.3915 15.08839706 99026
STARLINK-5440           
1 54785U 22175AD  24277.85789504  .00003479  00000+0  23646-3 0  9990
2 54785  53.2156 171.5836 0001428  94.8437 265.2719 15.08852315101916
STARLINK-5441           
1 54787U 22175AF  24278.11963888  .00000826  00000+0  69971-4 0  9996
2 54787  53.2165 225.2568 0001110  92.0575 268.0544 15.08830070 99027
STARLINK-5399           
1 54788U 22175AG  24278.52765901  .00001425  00000+0  10758-3 0  9992
2 54788  53.2169 208.5742 0001359  74.1589 285.9553 15.08851371 99295
STARLINK-5446           
1 54789U 22175AH  24278.46094152  .00008979  00000+0  58112-3 0  9996
2 54789  53.2167 193.7759 0001011  88.6175 271.4932 15.08866359 99498
STARLINK-5445           
1 54790U 22175AJ  24278.52028940  .00002725  00000+0  18916-3 0  9998
2 54790  53.2165 208.5309 0001153 100.8761 259.2361 15.08852313 99292
STARLINK-5425           
1 54791U 22175AK  24278.53502377  .00003577  00000+0  24258-3 0  9993
2 54791  53.2163 208.6234 0001151  87.1655 272.9469 15.08858839 99296
STARLINK-5431           
1 54792U 22175AL  24277.58233676  .00000960  00000+0  78390-4 0  9991
2 54792  53.2168 227.5920 0001385  95.5964 264.5186 15.08846212 98945
STARLINK-5433           
1 54793U 22175AM  24278.07228301  .00000597  00000+0  55595-4 0  9994
2 54793  53.2155 200.7624 0001424  91.9798 268.1357 15.08848112 99363
STARLINK-5392           
1 54794U 22175AN  24278.50984998  .00057019  00000+0  22194-2 0  9992
2 54794  53.2073 203.9843 0012007  93.0486 267.1887 15.25420554 99369
STARLINK-5436           
1 54795U 22175AP  24278.52397270  .00003287  00000+0  22439-3 0  9997
2 54795  53.2160 208.5524 0001289  85.4479 274.6661 15.08860178 99297
STARLINK-5415           
1 54796U 22175AQ  24278.51661042  .00000484  00000+0  48513-4 0  9996
2 54796  53.2162 208.5065 0001299 102.2137 257.9001 15.08847739 99290
STARLINK-5435           
1 54797U 22175AR  24278.13164202  .00013105  00000+0  83983-3 0  9994
2 54797  53.2153 225.3251 0001385  94.0749 266.0401 15.08844030 99025
STARLINK-5420           
1 54798U 22175AS  24278.51384567  .00005755  00000+0  37910-3 0  9996
2 54798  53.2158 198.5397 0000914  76.3970 283.7124 15.08866428 99437
STARLINK-5421           
1 54799U 22175AT  24278.06860218  .00020738  00000+0  13171-2 0  9999
2 54799  53.2160 200.7280 0001554 106.3928 253.7235 15.08843233 99367
STARLINK-5428           
1 54800U 22175AU  24278.52166669  .00001434  00000+0  10813-3 0  9995
2 54800  53.2160 213.5054 0001044  90.0364 270.0747 15.08853584 99234
STARLINK-5429           
1 54801U 22175AV  24278.23736297  .00002231  00000+0  15815-3 0  9997
2 54801  53.2165 224.5674 0001262  94.5342 265.5794 15.08849000 99045
